[{"OBJECT_NAME":"KUIPER-00065","OBJECT_ID":"2025-134AB","EPOCH":"2026-03-28T20:50:04.702272","MEAN_MOTION":14.79960907,"ECCENTRICITY":6.909e-5,"INCLINATION":51.9036,"RA_OF_ASC_NODE":155.8797,"ARG_OF_PERICENTER":68.8123,"MEAN_ANOMALY":291.2913,"EPHEMERIS_TYPE":0,"CLASSIFICATION_TYPE":"U","NORAD_CAT_ID":64525,"ELEMENT_SET_NO":999,"REV_AT_EPOCH":4279,"BSTAR":0.00058641989,"MEAN_MOTION_DOT":4.255e-5,"MEAN_MOTION_DDOT":0},{"OBJECT_NAME":"KUIPER-00066","OBJECT_ID":"2025-134AC","EPOCH":"2026-03-29T04:00:01.999584","MEAN_MOTION":15.0482507,"ECCENTRICITY":0.0001783,"INCLINATION":51.8836,"RA_OF_ASC_NODE":92.6452,"ARG_OF_PERICENTER":71.7041,"MEAN_ANOMALY":169.1703,"EPHEMERIS_TYPE":0,"CLASSIFICATION_TYPE":"U","NORAD_CAT_ID":64526,"ELEMENT_SET_NO":999,"REV_AT_EPOCH":478,"BSTAR":-0.13702,"MEAN_MOTION_DOT":-0.0178182,"MEAN_MOTION_DDOT":0},{"OBJECT_NAME":"KUIPER-00069","OBJECT_ID":"2025-151A","EPOCH":"2026-03-29T00:39:47.314944","MEAN_MOTION":14.79935946,"ECCENTRICITY":8.1e-5,"INCLINATION":51.899,"RA_OF_ASC_NODE":195.1118,"ARG_OF_PERICENTER":69.6241,"MEAN_ANOMALY":290.4808,"EPHEMERIS_TYPE":0,"CLASSIFICATION_TYPE":"U","NORAD_CAT_ID":64816,"ELEMENT_SET_NO":999,"REV_AT_EPOCH":3962,"BSTAR":0.00020864,"MEAN_MOTION_DOT":1.37e-5,"MEAN_MOTION_DDOT":0},{"OBJECT_NAME":"KUIPER-00070","OBJECT_ID":"2025-151B","EPOCH":"2026-03-29T02:26:48.865344","MEAN_MOTION":14.79932022,"ECCENTRICITY":7.22e-5,"INCLINATION":51.899,"RA_OF_ASC_NODE":219.718,"ARG_OF_PERICENTER":100.1536,"MEAN_ANOMALY":259.9508,"EPHEMERIS_TYPE":0,"CLASSIFICATION_TYPE":"U","NORAD_CAT_ID":64817,"ELEMENT_SET_NO":999,"REV_AT_EPOCH":3929,"BSTAR":0.00012714,"MEAN_MOTION_DOT":7.48e-6,"MEAN_MOTION_DDOT":0},{"OBJECT_NAME":"KUIPER-00071","OBJECT_ID":"2025-151C","EPOCH":"2026-03-28T15:09:59.050944","MEAN_MOTION":14.79931188,"ECCENTRICITY":4.64e-5,"INCLINATION":51.8999,"RA_OF_ASC_NODE":219.3201,"ARG_OF_PERICENTER":72.0522,"MEAN_ANOMALY":288.0491,"EPHEMERIS_TYPE":0,"CLASSIFICATION_TYPE":"U","NORAD_CAT_ID":64818,"ELEMENT_SET_NO":999,"REV_AT_EPOCH":3807,"BSTAR":0.00064454,"MEAN_MOTION_DOT":4.696e-5,"MEAN_MOTION_DDOT":0},{"OBJECT_NAME":"KUIPER-00072","OBJECT_ID":"2025-151D","EPOCH":"2026-03-29T00:35:35.191104","MEAN_MOTION":14.79738913,"ECCENTRICITY":2.79e-5,"INCLINATION":51.8966,"RA_OF_ASC_NODE":197.5614,"ARG_OF_PERICENTER":62.2787,"MEAN_ANOMALY":297.8204,"EPHEMERIS_TYPE":0,"CLASSIFICATION_TYPE":"U","NORAD_CAT_ID":64819,"ELEMENT_SET_NO":999,"REV_AT_EPOCH":3841,"BSTAR":0.00081207,"MEAN_MOTION_DOT":5.947e-5,"MEAN_MOTION_DDOT":0},{"OBJECT_NAME":"KUIPER-00073","OBJECT_ID":"2025-151E","EPOCH":"2026-03-29T01:42:06.433056","MEAN_MOTION":14.79946198,"ECCENTRICITY":4.3e-5,"INCLINATION":51.8988,"RA_OF_ASC_NODE":217.3691,"ARG_OF_PERICENTER":78.3877,"MEAN_ANOMALY":281.7134,"EPHEMERIS_TYPE":0,"CLASSIFICATION_TYPE":"U","NORAD_CAT_ID":64820,"ELEMENT_SET_NO":999,"REV_AT_EPOCH":3932,"BSTAR":-0.00013647,"MEAN_MOTION_DOT":-1.262e-5,"MEAN_MOTION_DDOT":0},{"OBJECT_NAME":"KUIPER-00074","OBJECT_ID":"2025-151F","EPOCH":"2026-03-29T04:00:01.999584","MEAN_MOTION":15.54586344,"ECCENTRICITY":0.0003811,"INCLINATION":51.8974,"RA_OF_ASC_NODE":195.6506,"ARG_OF_PERICENTER":33.2435,"MEAN_ANOMALY":191.8713,"EPHEMERIS_TYPE":0,"CLASSIFICATION_TYPE":"U","NORAD_CAT_ID":64821,"ELEMENT_SET_NO":999,"REV_AT_EPOCH":556,"BSTAR":-0.0032751,"MEAN_MOTION_DOT":-0.00215108,"MEAN_MOTION_DDOT":0},{"OBJECT_NAME":"KUIPER-00075","OBJECT_ID":"2025-151G","EPOCH":"2026-03-29T02:11:09.095136","MEAN_MOTION":15.42098489,"ECCENTRICITY":0.000489,"INCLINATION":51.8696,"RA_OF_ASC_NODE":127.3217,"ARG_OF_PERICENTER":13.9724,"MEAN_ANOMALY":346.1399,"EPHEMERIS_TYPE":0,"CLASSIFICATION_TYPE":"U","NORAD_CAT_ID":64822,"ELEMENT_SET_NO":999,"REV_AT_EPOCH":3939,"BSTAR":0.0010975,"MEAN_MOTION_DOT":0.00047606,"MEAN_MOTION_DDOT":0},{"OBJECT_NAME":"KUIPER-00076","OBJECT_ID":"2025-151H","EPOCH":"2026-03-29T00:20:21.202656","MEAN_MOTION":14.7995413,"ECCENTRICITY":4.67e-5,"INCLINATION":51.9015,"RA_OF_ASC_NODE":207.6334,"ARG_OF_PERICENTER":107.3894,"MEAN_ANOMALY":252.7119,"EPHEMERIS_TYPE":0,"CLASSIFICATION_TYPE":"U","NORAD_CAT_ID":64823,"ELEMENT_SET_NO":999,"REV_AT_EPOCH":3827,"BSTAR":-0.0005101,"MEAN_MOTION_DOT":-4.109e-5,"MEAN_MOTION_DDOT":0},{"OBJECT_NAME":"KUIPER-00077","OBJECT_ID":"2025-151J","EPOCH":"2026-03-29T01:49:52.940352","MEAN_MOTION":14.79952037,"ECCENTRICITY":5.82e-5,"INCLINATION":51.9014,"RA_OF_ASC_NODE":212.3738,"ARG_OF_PERICENTER":81.8389,"MEAN_ANOMALY":278.264,"EPHEMERIS_TYPE":0,"CLASSIFICATION_TYPE":"U","NORAD_CAT_ID":64824,"ELEMENT_SET_NO":999,"REV_AT_EPOCH":3821,"BSTAR":0.00075829,"MEAN_MOTION_DOT":5.567e-5,"MEAN_MOTION_DDOT":0},{"OBJECT_NAME":"KUIPER-00078","OBJECT_ID":"2025-151K","EPOCH":"2026-03-29T01:05:11.474880","MEAN_MOTION":14.79944171,"ECCENTRICITY":5.09e-5,"INCLINATION":51.8994,"RA_OF_ASC_NODE":209.9977,"ARG_OF_PERICENTER":86.2936,"MEAN_ANOMALY":273.8084,"EPHEMERIS_TYPE":0,"CLASSIFICATION_TYPE":"U","NORAD_CAT_ID":64825,"ELEMENT_SET_NO":999,"REV_AT_EPOCH":3824,"BSTAR":0.00075132,"MEAN_MOTION_DOT":5.513e-5,"MEAN_MOTION_DDOT":0},{"OBJECT_NAME":"KUIPER-00079","OBJECT_ID":"2025-151L","EPOCH":"2026-03-29T01:45:49.793472","MEAN_MOTION":14.7991816,"ECCENTRICITY":6.26e-5,"INCLINATION":51.898,"RA_OF_ASC_NODE":214.8439,"ARG_OF_PERICENTER":95.3359,"MEAN_ANOMALY":264.7674,"EPHEMERIS_TYPE":0,"CLASSIFICATION_TYPE":"U","NORAD_CAT_ID":64826,"ELEMENT_SET_NO":999,"REV_AT_EPOCH":3937,"BSTAR":-0.00055323,"MEAN_MOTION_DOT":-4.434e-5,"MEAN_MOTION_DDOT":0},{"OBJECT_NAME":"KUIPER-00080","OBJECT_ID":"2025-151M","EPOCH":"2026-03-29T00:57:21.871008","MEAN_MOTION":14.79944391,"ECCENTRICITY":6.09e-5,"INCLINATION":51.8998,"RA_OF_ASC_NODE":215.0018,"ARG_OF_PERICENTER":104.6434,"MEAN_ANOMALY":255.4596,"EPHEMERIS_TYPE":0,"CLASSIFICATION_TYPE":"U","NORAD_CAT_ID":64827,"ELEMENT_SET_NO":999,"REV_AT_EPOCH":3817,"BSTAR":7.4219e-5,"MEAN_MOTION_DOT":3.45e-6,"MEAN_MOTION_DDOT":0},{"OBJECT_NAME":"KUIPER-00082","OBJECT_ID":"2025-151N","EPOCH":"2026-03-29T00:28:08.520384","MEAN_MOTION":14.7992813,"ECCENTRICITY":6.88e-5,"INCLINATION":51.8996,"RA_OF_ASC_NODE":202.6272,"ARG_OF_PERICENTER":80.7806,"MEAN_ANOMALY":279.3234,"EPHEMERIS_TYPE":0,"CLASSIFICATION_TYPE":"U","NORAD_CAT_ID":64828,"ELEMENT_SET_NO":999,"REV_AT_EPOCH":3834,"BSTAR":-7.0159e-5,"MEAN_MOTION_DOT":-7.56e-6,"MEAN_MOTION_DDOT":0},{"OBJECT_NAME":"KUIPER-00083","OBJECT_ID":"2025-151P","EPOCH":"2026-03-28T19:24:49.480128","MEAN_MOTION":14.79948446,"ECCENTRICITY":4.837e-5,"INCLINATION":51.8991,"RA_OF_ASC_NODE":211.0458,"ARG_OF_PERICENTER":96.8456,"MEAN_ANOMALY":263.2561,"EPHEMERIS_TYPE":0,"CLASSIFICATION_TYPE":"U","NORAD_CAT_ID":64829,"ELEMENT_SET_NO":999,"REV_AT_EPOCH":3939,"BSTAR":0.00065968281,"MEAN_MOTION_DOT":4.813e-5,"MEAN_MOTION_DDOT":0},{"OBJECT_NAME":"KUIPER-00084","OBJECT_ID":"2025-151Q","EPOCH":"2026-03-29T01:38:11.390496","MEAN_MOTION":14.79921715,"ECCENTRICITY":5.01e-5,"INCLINATION":51.8991,"RA_OF_ASC_NODE":219.8835,"ARG_OF_PERICENTER":106.0091,"MEAN_ANOMALY":254.0926,"EPHEMERIS_TYPE":0,"CLASSIFICATION_TYPE":"U","NORAD_CAT_ID":64830,"ELEMENT_SET_NO":999,"REV_AT_EPOCH":3810,"BSTAR":0.00076777,"MEAN_MOTION_DOT":5.635e-5,"MEAN_MOTION_DDOT":0}]
