KUIPER-00065            
1 64525U 25134AB  26087.86810998  .00004255  00000+0  58642-3 0  9992
2 64525  51.9036 155.8797 0000690  68.8123 291.2913 14.79960907 42794
KUIPER-00066            
1 64526U 25134AC  26088.16668981 -.01781820  00000+0 -13702+0 0  9997
2 64526  51.8836  92.6452 0001783  71.7041 169.1703 15.04825070  4781
KUIPER-00069            
1 64816U 25151A   26088.02763096  .00001370  00000+0  20864-3 0  9999
2 64816  51.8990 195.1118 0000810  69.6241 290.4808 14.79935946 39620
KUIPER-00070            
1 64817U 25151B   26088.10195446  .00000748  00000+0  12714-3 0  9990
2 64817  51.8990 219.7180 0000722 100.1536 259.9508 14.79932022 39295
KUIPER-00071            
1 64818U 25151C   26087.63193346  .00004696  00000+0  64454-3 0  9999
2 64818  51.8999 219.3201 0000464  72.0522 288.0491 14.79931188 38071
KUIPER-00072            
1 64819U 25151D   26088.02471286  .00005947  00000+0  81207-3 0  9991
2 64819  51.8966 197.5614 0000279  62.2787 297.8204 14.79738913 38418
KUIPER-00073            
1 64820U 25151E   26088.07090779 -.00001262  00000+0 -13647-3 0  9993
2 64820  51.8988 217.3691 0000430  78.3877 281.7134 14.79946198 39328
KUIPER-00074            
1 64821U 25151F   26088.16668981 -.00215108  00000+0 -32751-2 0  9992
2 64821  51.8974 195.6506 0003811  33.2435 191.8713 15.54586344  5563
KUIPER-00075            
1 64822U 25151G   26088.09107749  .00047606  00000+0  10975-2 0  9993
2 64822  51.8696 127.3217 0004890  13.9724 346.1399 15.42098489 39398
KUIPER-00076            
1 64823U 25151H   26088.01413429 -.00004109  00000+0 -51010-3 0  9990
2 64823  51.9015 207.6334 0000467 107.3894 252.7119 14.79954130 38270
KUIPER-00077            
1 64824U 25151J   26088.07630718  .00005567  00000+0  75829-3 0  9990
2 64824  51.9014 212.3738 0000582  81.8389 278.2640 14.79952037 38214
KUIPER-00078            
1 64825U 25151K   26088.04527170  .00005513  00000+0  75132-3 0  9993
2 64825  51.8994 209.9977 0000509  86.2936 273.8084 14.79944171 38240
KUIPER-00079            
1 64826U 25151L   26088.07349298 -.00004434  00000+0 -55323-3 0  9993
2 64826  51.8980 214.8439 0000626  95.3359 264.7674 14.79918160 39372
KUIPER-00080            
1 64827U 25151M   26088.03983647  .00000345  00000+0  74219-4 0  9993
2 64827  51.8998 215.0018 0000609 104.6434 255.4596 14.79944391 38179
KUIPER-00082            
1 64828U 25151N   26088.01954306 -.00000756  00000+0 -70159-4 0  9999
2 64828  51.8996 202.6272 0000688  80.7806 279.3234 14.79928130 38342
KUIPER-00083            
1 64829U 25151P   26087.80890602  .00004813  00000+0  65968-3 0  9991
2 64829  51.8991 211.0458 0000483  96.8456 263.2561 14.79948446 39393
KUIPER-00084            
1 64830U 25151Q   26088.06818739  .00005635  00000+0  76777-3 0  9996
2 64830  51.8991 219.8835 0000501 106.0091 254.0926 14.79921715 38101
